{
    "links": {
        "self": "http://www.neowsapp.com/rest/v1/neo/3557330?api_key=iIulBulltgU6a56xZRHN4H3l9WmuAYTsLGpBGhQ2"
    },
    "id": "3557330",
    "neo_reference_id": "3557330",
    "name": "(2011 CH22)",
    "designation": "2011 CH22",
    "nasa_jpl_url": "http://ssd.jpl.nasa.gov/sbdb.cgi?sstr=3557330",
    "absolute_magnitude_h": 28.863,
    "estimated_diameter": {
        "kilometers": {
            "estimated_diameter_min": 0.0044869887,
            "estimated_diameter_max": 0.0100332118
        },
        "meters": {
            "estimated_diameter_min": 4.4869887082,
            "estimated_diameter_max": 10.0332117659
        },
        "miles": {
            "estimated_diameter_min": 0.0027880847,
            "estimated_diameter_max": 0.0062343468
        },
        "feet": {
            "estimated_diameter_min": 14.7210920335,
            "estimated_diameter_max": 32.9173624899
        }
    },
    "is_potentially_hazardous_asteroid": false,
    "close_approach_data": [
        {
            "close_approach_date": "2011-02-04",
            "close_approach_date_full": "2011-Feb-04 23:08",
            "epoch_date_close_approach": 1296860880000,
            "relative_velocity": {
                "kilometers_per_second": "5.3857124437",
                "kilometers_per_hour": "19388.5647972543",
                "miles_per_hour": "12047.3001652717"
            },
            "miss_distance": {
                "astronomical": "0.0084632533",
                "lunar": "3.2922055337",
                "kilometers": "1266084.666950471",
                "miles": "786708.5318836598"
            },
            "orbiting_body": "Earth"
        }
    ],
    "orbital_data": {
        "orbit_id": "11",
        "orbit_determination_date": "2019-12-18 10:27:36",
        "first_observation_date": "2011-02-07",
        "last_observation_date": "2011-02-07",
        "data_arc_in_days": null,
        "observations_used": 20,
        "orbit_uncertainty": "9",
        "minimum_orbit_intersection": ".000986313",
        "jupiter_tisserand_invariant": "6.858",
        "epoch_osculation": "2455600.5",
        "eccentricity": ".2327841785932039",
        "semi_major_axis": ".8573727087450145",
        "inclination": ".2690437466280273",
        "ascending_node_longitude": "326.4461495167328",
        "orbital_period": "289.9698939658829",
        "perihelion_distance": ".657789906991576",
        "perihelion_argument": "28.33208278685818",
        "aphelion_distance": "1.056955510498453",
        "perihelion_time": "2455499.172842312718",
        "mean_anomaly": "125.798496762955",
        "mean_motion": "1.241508196165898",
        "equinox": "J2000",
        "orbit_class": {
            "orbit_class_type": "ATE",
            "orbit_class_description": "Near-Earth asteroid orbits similar to that of 2062 Aten",
            "orbit_class_range": "a (semi-major axis) < 1.0 AU; q (perihelion) > 0.983 AU"
        }
    },
    "is_sentry_object": false
}